NORAD_CAT_ID,OBJECT_NAME,OBJECT_TYPE,EPOCH,MEAN_MOTION,ECCENTRICITY,INCLINATION,RA_OF_ASC_NODE,ARG_OF_PERICENTER,MEAN_ANOMALY,BSTAR,MEAN_MOTION_DOT,MEAN_MOTION_DDOT,TLE_LINE0,TLE_LINE1,TLE_LINE2,SEMIMAJOR_AXIS,PERIOD,APOGEE,PERIGEE,DECAYED
55303.0,STARLINK-5322,PAYLOAD,2024-04-07 11:05:37,14.98335918,0.0002843,70.0007,12.3056,272.7722,87.3111,-6.663e-06,-1.72e-06,0.0,0 STARLINK-5322,1 55303U 23010AL  24098.46224371 -.00000172  00000-0 -66630-5 0  9992,2 55303  70.0007  12.3056 0002843 272.7722  87.3111 14.98335918 67741,6950.175,96.107,574.016,570.064,0.0
55303.0,STARLINK-5322,PAYLOAD,2024-04-07 20:42:25,14.98338583,0.0002862,70.0009,11.2963,271.4332,88.6499,-7.6569e-05,-1.007e-05,0.0,0 STARLINK-5322,1 55303U 23010AL  24098.86280075 -.00001007  00000-0 -76569-4 0  9998,2 55303  70.0009  11.2963 0002862 271.4332  88.6499 14.98338583 67500,6950.166,96.106,574.02,570.042,0.0
55303.0,STARLINK-5322,PAYLOAD,2024-04-07 22:18:34,14.98340418,0.0002737,70.0011,11.1279,272.1868,87.8977,-0.00011759,-1.496e-05,0.0,0 STARLINK-5322,1 55303U 23010AL  24098.92956043 -.00001496  00000-0 -11759-3 0  9991,2 55303  70.0011  11.1279 0002737 272.1868  87.8977 14.98340418 67811,6950.161,96.106,573.928,570.123,0.0
55303.0,STARLINK-5322,PAYLOAD,2024-04-08 11:07:37,14.98355108,0.0002828,70.0007,9.781,270.1127,89.9708,-0.00031379,-3.837e-05,0.0,0 STARLINK-5322,1 55303U 23010AL  24099.46363016 -.00003837  00000-0 -31379-3 0  9994,2 55303  70.0007   9.7810 0002828 270.1127  89.9708 14.98355108 67599,6950.115,96.105,573.946,570.015,0.0
55303.0,STARLINK-5322,PAYLOAD,2024-04-08 23:56:42,14.98333019,0.0002638,70.0007,8.4348,272.6224,87.4633,0.00010636,1.176e-05,0.0,0 STARLINK-5322,1 55303U 23010AL  24099.99771512  .00001176  00000-0  10636-3 0  9991,2 55303  70.0007   8.4348 0002638 272.6224  87.4633 14.98333019 67974,6950.184,96.107,573.882,570.215,0.0
55303.0,STARLINK-5322,PAYLOAD,2024-04-09 04:45:06,14.98335667,0.0002574,70.0009,7.9297,271.6211,88.4653,0.00013536,1.523e-05,0.0,0 STARLINK-5322,1 55303U 23010AL  24100.19799218  .00001523  00000-0  13536-3 0  9997,2 55303  70.0009   7.9297 0002574 271.6211  88.4653 14.98335667 67702,6950.175,96.107,573.829,570.251,0.0
55303.0,STARLINK-5322,PAYLOAD,2024-04-09 11:09:39,14.98333635,0.000266,70.0008,7.2552,276.3493,83.7363,-2.674e-06,-1.25e-06,0.0,0 STARLINK-5322,1 55303U 23010AL  24100.46503602 -.00000125  00000-0 -26740-5 0  9999,2 55303  70.0008   7.2552 0002660 276.3493  83.7363 14.98333635 68045,6950.182,96.107,573.895,570.198,0.0
55303.0,STARLINK-5322,PAYLOAD,2024-04-10 11:11:40,14.98322157,0.0002754,69.9999,4.7316,279.1781,80.9067,0.0001441,1.626e-05,0.0,0 STARLINK-5322,1 55303U 23010AL  24101.46644148  .00001626  00000-0  14410-3 0  9995,2 55303  69.9999   4.7316 0002754 279.1781  80.9067 14.98322157 67895,6950.217,96.108,573.996,570.168,0.0
55303.0,STARLINK-5322,PAYLOAD,2024-04-10 20:48:28,14.98331708,0.0002766,70.0003,3.7213,272.8437,87.2405,2.6024e-05,2.18e-06,0.0,0 STARLINK-5322,1 55303U 23010AL  24101.86699670  .00000218  00000-0  26024-4 0  9990,2 55303  70.0003   3.7213 0002766 272.8437  87.2405 14.98331708 67955,6950.188,96.107,573.975,570.13,0.0
55303.0,STARLINK-5322,PAYLOAD,2024-04-10 22:24:36,14.98331138,0.000277,70.0001,3.5527,272.5631,87.5211,3.277e-05,2.98e-06,0.0,0 STARLINK-5322,1 55303U 23010AL  24101.93375694  .00000298  00000-0  32770-4 0  9998,2 55303  70.0001   3.5527 0002770 272.5631  87.5211 14.98331138 68267,6950.189,96.107,573.98,570.129,0.0
55303.0,STARLINK-5322,PAYLOAD,2024-04-11 11:13:40,14.98335745,0.0002824,70.0,2.2054,273.2379,86.8457,1.3674e-05,7e-07,0.0,0 STARLINK-5322,1 55303U 23010AL  24102.46783355  .00000070  00000-0  13674-4 0  9994,2 55303  70.0000   2.2054 0002824 273.2379  86.8457 14.98335745 68345,6950.175,96.107,574.003,570.077,0.0
55303.0,STARLINK-5322,PAYLOAD,2024-04-11 20:50:29,14.98336679,0.0002719,69.9999,1.1955,273.4881,86.5967,4.2313e-07,-8.8e-07,0.0,0 STARLINK-5322,1 55303U 23010AL  24102.86839302 -.00000088  00000-0  42313-6 0  9996,2 55303  69.9999   1.1955 0002719 273.4881  86.5967 14.98336679 68104,6950.172,96.107,573.927,570.147,0.0
55303.0,STARLINK-5322,PAYLOAD,2024-04-12 03:15:00,14.98357497,0.0002953,70.0,0.5225,269.5061,90.576,-0.00030841,-3.774e-05,0.0,0 STARLINK-5322,1 55303U 23010AL  24103.13542782 -.00003774  00000-0 -30841-3 0  9996,2 55303  70.0000   0.5225 0002953 269.5061  90.5760 14.98357497 68140,6950.108,96.105,574.025,569.92,0.0
55303.0,STARLINK-5322,PAYLOAD,2024-04-12 22:28:38,14.98334602,0.0002875,69.9999,358.5027,272.0662,88.0168,6.4697e-05,6.79e-06,0.0,0 STARLINK-5322,1 55303U 23010AL  24103.93655196  .00000679  00000-0  64697-4 0  9994,2 55303  69.9999 358.5027 0002875 272.0662  88.0168 14.98334602 68562,6950.179,96.107,574.042,570.045,0.0
55303.0,STARLINK-5322,PAYLOAD,2024-04-13 03:17:02,14.98336951,0.0002895,70.0,357.9978,271.951,88.1317,8.8424e-05,9.62e-06,0.0,0 STARLINK-5322,1 55303U 23010AL  24104.13682938  .00000962  00000-0  88424-4 0  9990,2 55303  70.0000 357.9978 0002895 271.9510  88.1317 14.98336951 68294,6950.171,96.107,574.048,570.024,0.0
55303.0,STARLINK-5322,PAYLOAD,2024-04-13 20:54:32,14.98296518,0.0002935,70.0008,356.1484,267.5301,92.5522,0.0006667,7.864e-05,0.0,0 STARLINK-5322,1 55303U 23010AL  24104.87120429  .00007864  00000-0  66670-3 0  9999,2 55303  70.0008 356.1484 0002935 267.5301  92.5522 14.98296518 68706,6950.296,96.109,574.201,570.122,0.0
55303.0,STARLINK-5322,PAYLOAD,2024-04-14 01:42:55,14.98330747,0.0002637,70.0008,355.6436,265.886,94.1997,2.725e-05,2.32e-06,0.0,0 STARLINK-5322,1 55303U 23010AL  24105.07147410  .00000232  00000-0  27250-4 0  9995,2 55303  70.0008 355.6436 0002637 265.8860  94.1997 14.98330747 68434,6950.191,96.107,573.888,570.223,0.0
55303.0,STARLINK-5322,PAYLOAD,2024-04-14 22:32:39,14.98333203,0.0002797,70.0009,353.4549,245.1512,114.9356,9.0274e-05,9.84e-06,0.0,0 STARLINK-5322,1 55303U 23010AL  24105.93934889  .00000984  00000-0  90274-4 0  9994,2 55303  70.0009 353.4549 0002797 245.1512 114.9356 14.98333203 68865,6950.183,96.107,573.992,570.104,0.0
55303.0,STARLINK-5322,PAYLOAD,2024-04-15 01:44:55,14.98334004,0.0002777,70.0009,353.1183,246.0091,114.0777,9.5964e-05,1.052e-05,0.0,0 STARLINK-5322,1 55303U 23010AL  24106.07286817  .00001052  00000-0  95964-4 0  9999,2 55303  70.0009 353.1183 0002777 246.0091 114.0777 14.98334004 68583,6950.181,96.107,573.976,570.115,0.0
55303.0,STARLINK-5322,PAYLOAD,2024-04-15 20:58:32,14.98331814,0.0002763,70.001,351.0983,246.0692,114.0178,8.6118e-05,9.35e-06,0.0,0 STARLINK-5322,1 55303U 23010AL  24106.87398949  .00000935  00000-0  86118-4 0  9997,2 55303  70.0010 351.0983 0002763 246.0692 114.0178 14.98331814 69001,6950.187,96.107,573.973,570.132,0.0
55303.0,STARLINK-5322,PAYLOAD,2024-04-16 01:46:56,14.98329535,0.0002626,70.0008,350.5896,265.4856,94.6003,0.00016161,1.836e-05,0.0,0 STARLINK-5322,1 55303U 23010AL  24107.07427073  .00001836  00000-0  16161-3 0  9992,2 55303  70.0008 350.5896 0002626 265.4856  94.6003 14.98329535 68736,6950.194,96.107,573.884,570.234,0.0
55303.0,STARLINK-5322,PAYLOAD,2024-04-16 09:47:36,14.98341048,0.000276,70.0,349.7488,269.7662,90.3181,9.3641e-05,1.025e-05,0.0,0 STARLINK-5322,1 55303U 23010AL  24107.40806396  .00001025  00000-0  93641-4 0  9997,2 55303  70.0000 349.7488 0002760 269.7662  90.3181 14.98341048 68784,6950.159,96.106,573.942,570.105,0.0
55303.0,STARLINK-5322,PAYLOAD,2024-04-16 21:00:33,14.98321033,0.0002884,70.0,348.5708,267.9517,92.1312,0.00048217,5.663e-05,0.0,0 STARLINK-5322,1 55303U 23010AL  24107.87538663  .00005663  00000-0  48217-3 0  9997,2 55303  70.0000 348.5708 0002884 267.9517  92.1312 14.98321033 68858,6950.221,96.108,574.09,570.081,0.0
55303.0,STARLINK-5322,PAYLOAD,2024-04-16 22:36:40,14.98340804,0.0002911,69.9997,348.4025,265.7153,94.3673,0.00015511,1.759e-05,0.0,0 STARLINK-5322,1 55303U 23010AL  24107.94214080  .00001759  00000-0  15511-3 0  9992,2 55303  69.9997 348.4025 0002911 265.7153  94.3673 14.98340804 69160,6950.159,96.106,574.048,570.001,0.0
55303.0,STARLINK-5322,PAYLOAD,2024-04-17 01:48:56,14.9835193,0.0002928,69.9993,348.0664,265.7961,94.2863,0.00023826,2.753e-05,0.0,0 STARLINK-5322,1 55303U 23010AL  24108.07565151  .00002753  00000-0  23826-3 0  9998,2 55303  69.9993 348.0664 0002928 265.7961  94.2863 14.98351930 68886,6950.125,96.106,574.025,569.955,0.0
55303.0,STARLINK-5322,PAYLOAD,2024-04-17 19:26:26,14.98322097,0.0003001,70.001,346.2142,279.1401,80.9418,-0.00010073,-1.294e-05,0.0,0 STARLINK-5322,1 55303U 23010AL  24108.81003234 -.00001294  00000-0 -10073-3 0  9990,2 55303  70.0010 346.2142 0003001 279.1401  80.9418 14.98322097 68993,6950.217,96.108,574.168,569.997,0.0
55303.0,STARLINK-5322,PAYLOAD,2024-04-18 01:50:59,14.98318879,0.0003102,70.0008,345.5403,279.5603,80.5206,-0.00018288,-2.274e-05,0.0,0 STARLINK-5322,1 55303U 23010AL  24109.07707549 -.00002274  00000-0 -18288-3 0  9994,2 55303  70.0008 345.5403 0003102 279.5603  80.5206 14.98318879 69335,6950.227,96.108,574.248,569.936,0.0
55303.0,STARLINK-5322,PAYLOAD,2024-04-18 19:28:27,14.9833113,0.0003432,69.9998,343.6882,279.2132,80.8638,0.00012957,1.453e-05,0.0,0 STARLINK-5322,1 55303U 23010AL  24109.81143124  .00001453  00000-0  12957-3 0  9992,2 55303  69.9998 343.6882 0003432 279.2132  80.8638 14.98331130 69146,6950.189,96.107,574.44,569.669,0.0
55303.0,STARLINK-5322,PAYLOAD,2024-04-18 22:40:43,14.98340081,0.0003065,70.0007,343.3542,268.4531,91.6277,0.00018434,2.108e-05,0.0,0 STARLINK-5322,1 55303U 23010AL  24109.94494610  .00002108  00000-0  18434-3 0  9999,2 55303  70.0007 343.3542 0003065 268.4531  91.6277 14.98340081 69464,6950.162,96.106,574.157,569.896,0.0
55303.0,STARLINK-5322,PAYLOAD,2024-04-19 01:52:59,14.98348253,0.0003288,70.0,343.0172,270.8486,89.2296,0.00030311,3.527e-05,0.0,0 STARLINK-5322,1 55303U 23010AL  24110.07846137  .00003527  00000-0  30311-3 0  9994,2 55303  70.0000 343.0172 0003288 270.8486  89.2296 14.98348253 69188,6950.136,96.106,574.287,569.716,0.0
